{"type": "FeatureCollection", "features": [ {"type": "Feature", "properties": {"norad_id": 35605, "name": "COSMOS 2251 DEB", "group": "cosmos-2251-debris", "lat": 24.759560933463362, "lon": -43.23070494329714, "alt_km": 460.3034914539003, "timestamp": "2025-12-25T09:48:52.685421+00:00", "meta": {"OBJECT_NAME": "COSMOS 2251 DEB", "OBJECT_ID": "1993-036AMY", "EPOCH": "2025-12-22T14:36:44.008416", "MEAN_MOTION": 15.38179315, "ECCENTRICITY": 0.00228045, "INCLINATION": 73.869, "RA_OF_ASC_NODE": 315.1978, "ARG_OF_PERICENTER": 235.9327, "MEAN_ANOMALY": 123.9715, "EPHEMERIS_TYPE": 0, "CLASSIFICATION_TYPE": "U", "NORAD_CAT_ID": 35605, "ELEMENT_SET_NO": 999, "REV_AT_EPOCH": 66123, "BSTAR": 0.0066900453, "MEAN_MOTION_DOT": 0.00262511, "MEAN_MOTION_DDOT": 0}, "tle": {"line1": "1 35605U 93036AMY 25356.60884269  .00262511  00000+0  66900-2 0  9993", "line2": "2 35605  73.8690 315.1978 0022804 235.9327 123.9715 15.38179315661234"}}, "geometry": {"type": "Point", "coordinates": [-43.23070494329714, 24.759560933463362]}}, {"type": "Feature", "properties": {"norad_id": 35606, "name": "COSMOS 2251 DEB", "group": "cosmos-2251-debris", "lat": 29.7449796328197, "lon": 161.0480122735028, "alt_km": 856.0285823447393, "timestamp": "2025-12-25T09:48:52.685430+00:00", "meta": {"OBJECT_NAME": "COSMOS 2251 DEB", "OBJECT_ID": "1993-036AMZ", "EPOCH": "2025-12-23T17:40:03.776448", "MEAN_MOTION": 13.41219482, "ECCENTRICITY": 0.0456715, "INCLINATION": 73.8099, "RA_OF_ASC_NODE": 353.2688, "ARG_OF_PERICENTER": 197.3533, "MEAN_ANOMALY": 161.1513, "EPHEMERIS_TYPE": 0, "CLASSIFICATION_TYPE": "U", "NORAD_CAT_ID": 35606, "ELEMENT_SET_NO": 999, "REV_AT_EPOCH": 61187, "BSTAR": 0.00021068754, "MEAN_MOTION_DOT": 1.94e-06, "MEAN_MOTION_DDOT": 0}, "tle": {"line1": "1 35606U 93036AMZ 25357.73615482  .00000194  00000+0  21069-3 0  9993", "line2": "2 35606  73.8099 353.2688 0456715 197.3533 161.1513 13.41219482611878"}}, "geometry": {"type": "Point", "coordinates": [161.0480122735028, 29.7449796328197]}}, {"type": "Feature", "properties": {"norad_id": 35611, "name": "COSMOS 2251 DEB", "group": "cosmos-2251-debris", "lat": 17.36338706805192, "lon": -30.540351456411457, "alt_km": 644.6096075220921, "timestamp": "2025-12-25T09:48:52.685440+00:00", "meta": {"OBJECT_NAME": "COSMOS 2251 DEB", "OBJECT_ID": "1993-036ANE", "EPOCH": "2025-12-19T11:16:40.848672", "MEAN_MOTION": 14.73020971, "ECCENTRICITY": 0.0021353, "INCLINATION": 74.0189, "RA_OF_ASC_NODE": 166.1787, "ARG_OF_PERICENTER": 238.9125, "MEAN_ANOMALY": 120.9952, "EPHEMERIS_TYPE": 0, "CLASSIFICATION_TYPE": "U", "NORAD_CAT_ID": 35611, "ELEMENT_SET_NO": 999, "REV_AT_EPOCH": 87389, "BSTAR": 0.0015718, "MEAN_MOTION_DOT": 0.0001012, "MEAN_MOTION_DDOT": 0}, "tle": {"line1": "1 35611U 93036ANE 25353.46991723  .00010120  00000+0  15718-2 0  9993", "line2": "2 35611  74.0189 166.1787 0021353 238.9125 120.9952 14.73020971873894"}}, "geometry": {"type": "Point", "coordinates": [-30.540351456411457, 17.36338706805192]}}, {"type": "Feature", "properties": {"norad_id": 35614, "name": "COSMOS 2251 DEB", "group": "cosmos-2251-debris", "lat": 10.080026304729166, "lon": -54.17152773086971, "alt_km": 713.9995092901954, "timestamp": "2025-12-25T09:48:52.685450+00:00", "meta": {"OBJECT_NAME": "COSMOS 2251 DEB", "OBJECT_ID": "1993-036ANH", "EPOCH": "2025-12-22T04:50:52.701504", "MEAN_MOTION": 14.67087782, "ECCENTRICITY": 0.00751415, "INCLINATION": 73.9595, "RA_OF_ASC_NODE": 309.1128, "ARG_OF_PERICENTER": 161.1452, "MEAN_ANOMALY": 199.2529, "EPHEMERIS_TYPE": 0, "CLASSIFICATION_TYPE": "U", "NORAD_CAT_ID": 35614, "ELEMENT_SET_NO": 999, "REV_AT_EPOCH": 87868, "BSTAR": 0.00075496675, "MEAN_MOTION_DOT": 4.392e-05, "MEAN_MOTION_DDOT": 0}, "tle": {"line1": "1 35614U 93036ANH 25356.20199886  .00004392  00000+0  75497-3 0  9996", "line2": "2 35614  73.9595 309.1128 0075141 161.1452 199.2529 14.67087782878685"}}, "geometry": {"type": "Point", "coordinates": [-54.17152773086971, 10.080026304729166]}}, {"type": "Feature", "properties": {"norad_id": 35645, "name": "COSMOS 2251 DEB", "group": "cosmos-2251-debris", "lat": -15.039395969009384, "lon": -111.56773902872627, "alt_km": 698.8182575310575, "timestamp": "2025-12-25T09:48:52.685459+00:00", "meta": {"OBJECT_NAME": "COSMOS 2251 DEB", "OBJECT_ID": "1993-036ANL", "EPOCH": "2025-12-24T21:17:02.930208", "MEAN_MOTION": 14.45745322, "ECCENTRICITY": 0.0069632, "INCLINATION": 73.9638, "RA_OF_ASC_NODE": 64.9778, "ARG_OF_PERICENTER": 221.3549, "MEAN_ANOMALY": 138.2326, "EPHEMERIS_TYPE": 0, "CLASSIFICATION_TYPE": "U", "NORAD_CAT_ID": 35645, "ELEMENT_SET_NO": 999, "REV_AT_EPOCH": 86947, "BSTAR": 0.0019438, "MEAN_MOTION_DOT": 7.076e-05, "MEAN_MOTION_DDOT": 0}, "tle": {"line1": "1 35645U 93036ANL 25358.88683947  .00007076  00000+0  19438-2 0  9996", "line2": "2 35645  73.9638  64.9778 0069632 221.3549 138.2326 14.45745322869470"}}, "geometry": {"type": "Point", "coordinates": [-111.56773902872627, -15.039395969009384]}}, {"type": "Feature", "properties": {"norad_id": 35646, "name": "COSMOS 2251 DEB", "group": "cosmos-2251-debris", "lat": 16.61700058458053, "lon": 40.88001080167183, "alt_km": 1299.1576752098, "timestamp": "2025-12-25T09:48:52.685469+00:00", "meta": {"OBJECT_NAME": "COSMOS 2251 DEB", "OBJECT_ID": "1993-036ANM", "EPOCH": "2025-12-24T19:59:26.255328", "MEAN_MOTION": 13.40835272, "ECCENTRICITY": 0.04558466, "INCLINATION": 73.8714, "RA_OF_ASC_NODE": 36.8399, "ARG_OF_PERICENTER": 144.9794, "MEAN_ANOMALY": 337.3781, "EPHEMERIS_TYPE": 0, "CLASSIFICATION_TYPE": "U", "NORAD_CAT_ID": 35646, "ELEMENT_SET_NO": 999, "REV_AT_EPOCH": 82020, "BSTAR": 0.00039650264, "MEAN_MOTION_DOT": 3.84e-06, "MEAN_MOTION_DDOT": 0}, "tle": {"line1": "1 35646U 93036ANM 25358.83294277  .00000384  00000+0  39650-3 0  9990", "line2": "2 35646  73.8714  36.8399 0455846 144.9794 337.3781 13.40835272820203"}}, "geometry": {"type": "Point", "coordinates": [40.88001080167183, 16.61700058458053]}}, {"type": "Feature", "properties": {"norad_id": 35647, "name": "COSMOS 2251 DEB", "group": "cosmos-2251-debris", "lat": 4.001920582174908, "lon": 89.84918139925699, "alt_km": 780.635745086217, "timestamp": "2025-12-25T09:48:52.685479+00:00", "meta": {"OBJECT_NAME": "COSMOS 2251 DEB", "OBJECT_ID": "1993-036ANN", "EPOCH": "2025-12-24T03:04:08.125248", "MEAN_MOTION": 14.43689782, "ECCENTRICITY": 0.00461776, "INCLINATION": 74.0232, "RA_OF_ASC_NODE": 273.3799, "ARG_OF_PERICENTER": 9.8571, "MEAN_ANOMALY": 350.348, "EPHEMERIS_TYPE": 0, "CLASSIFICATION_TYPE": "U", "NORAD_CAT_ID": 35647, "ELEMENT_SET_NO": 999, "REV_AT_EPOCH": 67828, "BSTAR": 0.0007860854, "MEAN_MOTION_DOT": 2.678e-05, "MEAN_MOTION_DDOT": 0}, "tle": {"line1": "1 35647U 93036ANN 25358.12787182  .00002678  00000+0  78609-3 0  9990", "line2": "2 35647  74.0232 273.3799 0046177   9.8571 350.3480 14.43689782678286"}}, "geometry": {"type": "Point", "coordinates": [89.84918139925699, 4.001920582174908]}}, {"type": "Feature", "properties": {"norad_id": 35650, "name": "COSMOS 2251 DEB", "group": "cosmos-2251-debris", "lat": 14.598179013854667, "lon": -1.939906566107726, "alt_km": 607.5403852558802, "timestamp": "2025-12-25T09:48:52.685489+00:00", "meta": {"OBJECT_NAME": "COSMOS 2251 DEB", "OBJECT_ID": "1993-036ANR", "EPOCH": "2025-12-24T10:09:10.296576", "MEAN_MOTION": 14.83923288, "ECCENTRICITY": 0.00151483, "INCLINATION": 74.0477, "RA_OF_ASC_NODE": 355.7395, "ARG_OF_PERICENTER": 38.3431, "MEAN_ANOMALY": 112.3443, "EPHEMERIS_TYPE": 0, "CLASSIFICATION_TYPE": "U", "NORAD_CAT_ID": 35650, "ELEMENT_SET_NO": 999, "REV_AT_EPOCH": 87807, "BSTAR": 0.0020058306, "MEAN_MOTION_DOT": 0.00016711, "MEAN_MOTION_DDOT": 0}, "tle": {"line1": "1 35650U 93036ANR 25358.42303584  .00016711  00000+0  20058-2 0  9994", "line2": "2 35650  74.0477 355.7395 0015148  38.3431 112.3443 14.83923288878074"}}, "geometry": {"type": "Point", "coordinates": [-1.939906566107726, 14.598179013854667]}}, {"type": "Feature", "properties": {"norad_id": 35660, "name": "COSMOS 2251 DEB", "group": "cosmos-2251-debris", "lat": -29.34884111556679, "lon": -61.28911105659269, "alt_km": 722.1267092496919, "timestamp": "2025-12-25T09:48:52.685498+00:00", "meta": {"OBJECT_NAME": "COSMOS 2251 DEB", "OBJECT_ID": "1993-036APB", "EPOCH": "2025-12-23T17:25:27.080832", "MEAN_MOTION": 14.49964406, "ECCENTRICITY": 0.00185636, "INCLINATION": 74.0421, "RA_OF_ASC_NODE": 112.6097, "ARG_OF_PERICENTER": 260.1497, "MEAN_ANOMALY": 169.4034, "EPHEMERIS_TYPE": 0, "CLASSIFICATION_TYPE": "U", "NORAD_CAT_ID": 35660, "ELEMENT_SET_NO": 999, "REV_AT_EPOCH": 66030, "BSTAR": 0.0004829615, "MEAN_MOTION_DOT": 1.846e-05, "MEAN_MOTION_DDOT": 0}, "tle": {"line1": "1 35660U 93036APB 25357.72600788  .00001846  00000+0  48296-3 0  9991", "line2": "2 35660  74.0421 112.6097 0018563 260.1497 169.4034 14.49964406660307"}}, "geometry": {"type": "Point", "coordinates": [-61.28911105659269, -29.34884111556679]}}, {"type": "Feature", "properties": {"norad_id": 35661, "name": "COSMOS 2251 DEB", "group": "cosmos-2251-debris", "lat": 70.98241689379, "lon": 110.75989036169548, "alt_km": 585.545425174706, "timestamp": "2025-12-25T09:48:52.685508+00:00", "meta": {"OBJECT_NAME": "COSMOS 2251 DEB", "OBJECT_ID": "1993-036APC", "EPOCH": "2025-12-23T10:37:17.617728", "MEAN_MOTION": 14.86718624, "ECCENTRICITY": 0.00868669, "INCLINATION": 74.0127, "RA_OF_ASC_NODE": 58.3939, "ARG_OF_PERICENTER": 159.8507, "MEAN_ANOMALY": 200.6139, "EPHEMERIS_TYPE": 0, "CLASSIFICATION_TYPE": "U", "NORAD_CAT_ID": 35661, "ELEMENT_SET_NO": 999, "REV_AT_EPOCH": 88027, "BSTAR": 0.00075396446, "MEAN_MOTION_DOT": 7.154e-05, "MEAN_MOTION_DDOT": 0}, "tle": {"line1": "1 35661U 93036APC 25357.44256502  .00007154  00000+0  75396-3 0  9991", "line2": "2 35661  74.0127  58.3939 0086866 159.8507 200.6139 14.86718624880273"}}, "geometry": {"type": "Point", "coordinates": [110.75989036169548, 70.98241689379]}}]}